{
  "links" : {
    "next" : "https://api.nasa.gov/neo/rest/v1/feed?start_date=1998-10-16&end_date=1998-10-16&detailed=true&api_key=t0TVs3DtDT2H8Oy2Zy8m2eVrNsAVKAexjcZXUckd",
    "prev" : "https://api.nasa.gov/neo/rest/v1/feed?start_date=1998-10-14&end_date=1998-10-14&detailed=true&api_key=t0TVs3DtDT2H8Oy2Zy8m2eVrNsAVKAexjcZXUckd",
    "self" : "https://api.nasa.gov/neo/rest/v1/feed?start_date=1998-10-15&end_date=1998-10-15&detailed=true&api_key=t0TVs3DtDT2H8Oy2Zy8m2eVrNsAVKAexjcZXUckd"
  },
  "element_count" : 10,
  "near_earth_objects" : {
    "1998-10-15" : [ {
      "links" : {
        "self" : "https://api.nasa.gov/neo/rest/v1/neo/2006047?api_key=t0TVs3DtDT2H8Oy2Zy8m2eVrNsAVKAexjcZXUckd"
      },
      "neo_reference_id" : "2006047",
      "name" : "6047 (1991 TB1)",
      "nasa_jpl_url" : "http://ssd.jpl.nasa.gov/sbdb.cgi?sstr=2006047",
      "absolute_magnitude_h" : 17.8,
      "estimated_diameter" : {
        "kilometers" : {
          "estimated_diameter_min" : 0.7320739893,
          "estimated_diameter_max" : 1.6369672047
        },
        "meters" : {
          "estimated_diameter_min" : 732.0739893473,
          "estimated_diameter_max" : 1636.96720474
        },
        "miles" : {
          "estimated_diameter_min" : 0.4548895468,
          "estimated_diameter_max" : 1.017163949
        },
        "feet" : {
          "estimated_diameter_min" : 2401.8176272101,
          "estimated_diameter_max" : 5370.6274839991
        }
      },
      "is_potentially_hazardous_asteroid" : false,
      "close_approach_data" : [ {
        "close_approach_date" : "1998-10-15",
        "epoch_date_close_approach" : 908434800000,
        "relative_velocity" : {
          "kilometers_per_second" : "12.2868141303",
          "kilometers_per_hour" : "44232.5308691056",
          "miles_per_hour" : "27484.374528084"
        },
        "miss_distance" : {
          "astronomical" : "0.3748248083",
          "lunar" : "145.806854248",
          "kilometers" : "56072996",
          "miles" : "34842144"
        },
        "orbiting_body" : "Earth"
      } ],
      "orbital_data" : {
        "orbit_id" : "97",
        "orbit_determination_date" : "2017-04-06 09:30:17",
        "orbit_uncertainty" : "0",
        "minimum_orbit_intersection" : ".141566",
        "jupiter_tisserand_invariant" : "4.485",
        "epoch_osculation" : "2458000.5",
        "eccentricity" : ".3521120707749145",
        "semi_major_axis" : "1.454390152322255",
        "inclination" : "23.47360121892155",
        "ascending_node_longitude" : "6.124609079060788",
        "orbital_period" : "640.6485017001149",
        "perihelion_distance" : ".9422818240734228",
        "perihelion_argument" : "103.7484791094854",
        "aphelion_distance" : "1.966498480571088",
        "perihelion_time" : "2458246.835750847249",
        "mean_anomaly" : "221.5764025519866",
        "mean_motion" : ".5619306047616648",
        "equinox" : "J2000"
      }
    }, {
      "links" : {
        "self" : "https://api.nasa.gov/neo/rest/v1/neo/2162120?api_key=t0TVs3DtDT2H8Oy2Zy8m2eVrNsAVKAexjcZXUckd"
      },
      "neo_reference_id" : "2162120",
      "name" : "162120 (1998 SH36)",
      "nasa_jpl_url" : "http://ssd.jpl.nasa.gov/sbdb.cgi?sstr=2162120",
      "absolute_magnitude_h" : 20.6,
      "estimated_diameter" : {
        "kilometers" : {
          "estimated_diameter_min" : 0.2016299194,
          "estimated_diameter_max" : 0.4508582062
        },
        "meters" : {
          "estimated_diameter_min" : 201.6299194428,
          "estimated_diameter_max" : 450.8582061718
        },
        "miles" : {
          "estimated_diameter_min" : 0.1252869847,
          "estimated_diameter_max" : 0.2801502144
        },
        "feet" : {
          "estimated_diameter_min" : 661.5155049046,
          "estimated_diameter_max" : 1479.1936371367
        }
      },
      "is_potentially_hazardous_asteroid" : true,
      "close_approach_data" : [ {
        "close_approach_date" : "1998-10-15",
        "epoch_date_close_approach" : 908434800000,
        "relative_velocity" : {
          "kilometers_per_second" : "15.3670938881",
          "kilometers_per_hour" : "55321.5379970448",
          "miles_per_hour" : "34374.6523182193"
        },
        "miss_distance" : {
          "astronomical" : "0.0792963307",
          "lunar" : "30.8462715149",
          "kilometers" : "11862562",
          "miles" : "7371054.5"
        },
        "orbiting_body" : "Earth"
      } ],
      "orbital_data" : {
        "orbit_id" : "49",
        "orbit_determination_date" : "2017-08-13 06:21:30",
        "orbit_uncertainty" : "0",
        "minimum_orbit_intersection" : ".01201",
        "jupiter_tisserand_invariant" : "5.533",
        "epoch_osculation" : "2458000.5",
        "eccentricity" : ".5708737431152491",
        "semi_major_axis" : "1.087977707490191",
        "inclination" : "2.131566790345682",
        "ascending_node_longitude" : "217.939866136988",
        "orbital_period" : "414.5037100578339",
        "perihelion_distance" : ".4668798011893181",
        "perihelion_argument" : "278.7177760446532",
        "aphelion_distance" : "1.709075613791064",
        "perihelion_time" : "2458206.421882388428",
        "mean_anomaly" : "181.1550925575777",
        "mean_motion" : ".8685085109365385",
        "equinox" : "J2000"
      }
    }, {
      "links" : {
        "self" : "https://api.nasa.gov/neo/rest/v1/neo/2256004?api_key=t0TVs3DtDT2H8Oy2Zy8m2eVrNsAVKAexjcZXUckd"
      },
      "neo_reference_id" : "2256004",
      "name" : "256004 (2006 UP)",
      "nasa_jpl_url" : "http://ssd.jpl.nasa.gov/sbdb.cgi?sstr=2256004",
      "absolute_magnitude_h" : 23.0,
      "estimated_diameter" : {
        "kilometers" : {
          "estimated_diameter_min" : 0.0667659413,
          "estimated_diameter_max" : 0.1492931834
        },
        "meters" : {
          "estimated_diameter_min" : 66.7659413495,
          "estimated_diameter_max" : 149.2931834393
        },
        "miles" : {
          "estimated_diameter_min" : 0.0414864197,
          "estimated_diameter_max" : 0.0927664547
        },
        "feet" : {
          "estimated_diameter_min" : 219.0483710172,
          "estimated_diameter_max" : 489.807047955
        }
      },
      "is_potentially_hazardous_asteroid" : false,
      "close_approach_data" : [ {
        "close_approach_date" : "1998-10-15",
        "epoch_date_close_approach" : 908434800000,
        "relative_velocity" : {
          "kilometers_per_second" : "4.4755559327",
          "kilometers_per_hour" : "16112.0013575973",
          "miles_per_hour" : "10011.3710657804"
        },
        "miss_distance" : {
          "astronomical" : "0.211541323",
          "lunar" : "82.2895736694",
          "kilometers" : "31646132",
          "miles" : "19663994"
        },
        "orbiting_body" : "Earth"
      } ],
      "orbital_data" : {
        "orbit_id" : "57",
        "orbit_determination_date" : "2017-04-06 09:24:44",
        "orbit_uncertainty" : "0",
        "minimum_orbit_intersection" : ".112573",
        "jupiter_tisserand_invariant" : "4.331",
        "epoch_osculation" : "2455959.5",
        "eccentricity" : ".3016910826145785",
        "semi_major_axis" : "1.586873636864196",
        "inclination" : "2.283971364071621",
        "ascending_node_longitude" : "48.01820371204126",
        "orbital_period" : "730.1497563191807",
        "perihelion_distance" : "1.108128011386103",
        "perihelion_argument" : "334.8370623566142",
        "aphelion_distance" : "2.065619262342288",
        "perihelion_time" : "2456212.069620814852",
        "mean_anomaly" : "235.4706651526987",
        "mean_motion" : ".4930495379671511",
        "equinox" : "J2000"
      }
    } ]
  }
}